AMC-1 (GE-1)            
1 24315U 96054A   23213.67443383  .00000026  00000+0  00000+0 0  9994
2 24315   6.5902  69.5421 0003659 155.9846  43.0228  0.99500398 98488
AMC-3 (GE-3)            
1 24936U 97050A   23214.41847184 -.00000272  00000+0  00000+0 0  9994
2 24936   5.5514  75.4979 0002795  57.1298 256.7569  1.00273112 94923
ASTRA 1G                
1 25071U 97076A   23213.83488128 -.00000266  00000+0  00000+0 0  9990
2 25071   7.0597  64.0700 0009836  98.6338 249.7824  0.99040336 93995
ASTRA 2A                
1 25462U 98050A   23213.74240471  .00000060  00000+0  00000+0 0  9995
2 25462   4.4313  81.1143 0003146  36.7994 156.6140  1.00272077 91207
NSS-11 (AAP-1)          
1 26554U 00059A   23214.44414911  .00000016  00000+0  00000+0 0  9991
2 26554   0.0588 276.6408 0002356 200.3951 169.6129  1.00269202 83641
AMC-6 (GE-6)            
1 26580U 00067A   23214.44331396  .00000096  00000+0  00000+0 0  9992
2 26580   0.0111  54.6501 0002559  81.8780 194.8262  1.00271077 83457
ASTRA 2C                
1 26853U 01025A   23213.50156484 -.00000268  00000+0  00000+0 0  9991
2 26853   5.5712  75.3238 0002970  43.5459 299.0398  1.00269329 81036
NSS-7                   
1 27414U 02019A   23213.94203590 -.00000169  00000+0  00000+0 0  9998
2 27414   6.8588  67.7929 0002209  71.4752 130.1313  1.00271561 78026
NSS-6                   
1 27603U 02057A   23214.45346550  .00000098  00000+0  00000+0 0  9991
2 27603   2.6498  86.7400 0003212  40.3381 177.4636  1.00274053 75515
AMC-11 (GE-11)          
1 28252U 04017A   23213.70886396 -.00000055  00000+0  00000+0 0  9998
2 28252   0.0592 282.1698 0001620 213.8966 318.0541  1.00271364 70178
AMC-15                  
1 28446U 04041A   23213.92512594 -.00000095  00000+0  00000+0 0  9994
2 28446   0.0615 280.4723 0002808 197.8102  59.9632  1.00271031 68812
NSS-10 (AMC-12)         
1 28526U 05003A   23214.36853546 -.00000261  00000+0  00000+0 0  9991
2 28526   3.8074  82.8697 0002905  35.3267 287.7103  1.00269500 67799
ASTRA 1KR               
1 29055U 06012A   23213.85386108  .00000113  00000+0  00000+0 0  9993
2 29055   0.0753 272.4563 0003550 259.0075 105.2626  1.00272095 63218
AMC-18                  
1 29644U 06054B   23213.57116178 -.00000221  00000+0  00000+0 0  9991
2 29644   0.0640 273.4286 0002511 221.9693 297.1261  1.00270683 60999
ASTRA 1L                
1 31306U 07016A   23213.97225139  .00000112  00000+0  00000+0 0  9998
2 31306   0.0888 295.4911 0001264 195.5178 188.4891  1.00270245 59519
ASTRA 4A (SIRIUS 4)     
1 32299U 07057A   23214.37699045  .00000024  00000+0  00000+0 0  9993
2 32299   0.0578 277.4805 0002859 215.7732 317.9711  1.00271992 57430
AMC-21                  
1 33275U 08038B   23213.70616185  .00000030  00000+0  00000+0 0  9995
2 33275   0.2262  96.8873 0003289  39.1770 303.2877  1.00271266 54930
ASTRA 1M                
1 33436U 08057A   23214.30814492  .00000112  00000+0  00000+0 0  9994
2 33436   0.0272  87.8054 0005490  50.3198 302.6272  1.00271332 53951
CIEL-2                  
1 33453U 08063A   23214.44927132  .00000050  00000+0  00000+0 0  9992
2 33453   0.0503 102.9167 0003087  28.8888 211.8453  1.00271589 53605
NSS-9                   
1 33749U 09008A   23213.69578922  .00000065  00000+0  00000+0 0  9991
2 33749   0.0142  37.2758 0002370  86.0037 260.2907  1.00271054 53030
SES-7 (PROTOSTAR 2)     
1 34941U 09027A   23214.32592656 -.00000353  00000+0  00000+0 0  9999
2 34941   0.0353 301.8344 0001065 253.9756 340.4380  1.00270987 52087
NSS-12                  
1 36032U 09058A   23213.88462347  .00000065  00000+0  00000+0 0  9998
2 36032   0.0213 336.5120 0002851 151.4177 197.7417  1.00270837 50384
SES-1                   
1 36516U 10016A   23213.63921924 -.00000120  00000+0  00000+0 0  9998
2 36516   0.0475 279.1800 0002576 207.0128 312.8950  1.00270875 48602
ASTRA 3B                
1 36581U 10021A   23213.73569302  .00000130  00000+0  00000+0 0  9995
2 36581   0.0472  28.4563 0004129  88.9948 120.9423  1.00269550 48111
SES-3                   
1 37748U 11035A   23214.46372675 -.00000110  00000+0  00000+0 0  9992
2 37748   0.0501 288.7890 0002834 199.2480 246.6846  1.00271026 44170
ASTRA 1N                
1 37775U 11041A   23213.23316666  .00000116  00000+0  00000+0 0  9996
2 37775   0.0501 359.1513 0004192  92.4905 321.0680  1.00274131 43869
SES-2                   
1 37809U 11049A   23214.13630365 -.00000203  00000+0  00000+0 0  9995
2 37809   0.0568 275.3967 0002803 216.8111 140.3094  1.00268968 43468
QUETZSAT 1              
1 37826U 11054A   23214.46899821 -.00000250  00000+0  00000+0 0  9992
2 37826   0.0109  18.0263 0002624 133.4662 251.1339  1.00271530 43579
SES-4                   
1 38087U 12007A   23214.37167340 -.00000177  00000+0  00000+0 0  9993
2 38087   0.0237  51.3228 0002308  86.2216 284.9412  1.00270341 41967
SES-5                   
1 38652U 12036A   23213.73203209  .00000027  00000+0  00000+0 0  9990
2 38652   0.0544 282.9707 0002265 206.3473  89.2543  1.00270718 40533
ASTRA 2F                
1 38778U 12051A   23213.73665183  .00000144  00000+0  00000+0 0  9999
2 38778   0.0884 254.6840 0002892 284.6341  64.1168  1.00270577 39752
SES-6                   
1 39172U 13026A   23213.50792788 -.00000266  00000+0  00000+0 0  9994
2 39172   0.0557 279.6811 0002900 233.1046 299.4081  1.00273062 37188
O3B FM5                 
1 39188U 13031A   23209.45500467 -.00000012  00000+0  00000+0 0  9996
2 39188   0.0448 342.8018 0003024 143.0461 234.1803  5.00115609184260
O3B FM4                 
1 39189U 13031B   23214.30808314 -.00000019  00000+0  00000+0 0  9996
2 39189   0.0506  16.4810 0002972 114.7656 228.7763  5.00116060184628
O3B FM2                 
1 39190U 13031C   23212.60092898 -.00000017  00000+0  00000+0 0  9999
2 39190   0.0521  22.0066 0002830 105.9142 232.1029  5.00115278184497
O3B PFM                 
1 39191U 13031D   23214.22594175 -.00000019  00000+0  00000+0 0  9997
2 39191   0.0459 354.2077 0002598 134.4938 231.3190  5.00115910184595
ASTRA 2E                
1 39285U 13056A   23213.73665183  .00000144  00000+0  00000+0 0  9999
2 39285   0.0551   3.9850 0003006 116.6128 123.1734  1.00268165 36053
SES-8                   
1 39460U 13071A   23213.10487095 -.00000273  00000+0  00000+0 0  9990
2 39460   0.0652 263.2077 0003332 211.0017 327.9942  1.00273629 35337
ASTRA 5B                
1 39617U 14011B   23213.97554385  .00000130  00000+0  00000+0 0  9992
2 39617   0.0604 305.0704 0002791 206.5070 173.4024  1.00270175 34344
O3B FM3                 
1 40079U 14038A   23213.68072784 -.00000018  00000+0  00000+0 0  9997
2 40079   0.0468   8.5046 0001072  54.7325 296.7713  5.00116663165587
O3B FM7                 
1 40080U 14038B   23212.42793511 -.00000016  00000+0  00000+0 0  9996
2 40080   0.0447  13.6316 0004424 118.6489 227.7554  5.00115786165546
O3B FM6                 
1 40081U 14038C   23212.85429672 -.00000017  00000+0  00000+0 0  9999
2 40081   0.0476   9.0912 0002672 117.7767 233.1547  5.00115238165569
O3B FM8                 
1 40082U 14038D   23213.50758994 -.00000018  00000+0  00000+0 0  9996
2 40082   0.0498  11.8025 0002566 119.0499 229.1675  5.00115902165575
O3B FM10                
1 40348U 14083A   23213.13422006 -.00000017  00000+0  00000+0 0  9991
2 40348   0.0497 358.6252 0002630 129.5940 231.8023  5.00115287157486
O3B FM11                
1 40349U 14083B   23212.54787363 -.00000016  00000+0  00000+0 0  9995
2 40349   0.0450 358.2942 0003317 125.1741 236.5618  5.00115487157453
O3B FM12                
1 40350U 14083C   23212.57514225 -.00000016  00000+0  00000+0 0  9995
2 40350   0.0456 359.2272 0002729 124.3263 236.4709  5.00115418157458
O3B FM9                 
1 40351U 14083D   23210.60266153 -.00000013  00000+0  00000+0 0  9999
2 40351   0.0440 357.7057 0002722 128.3218 233.9973  5.00115022157369
ASTRA 2G                
1 40364U 14089A   23213.87997453  .00000143  00000+0  00000+0 0  9998
2 40364   0.0540 318.4670 0003953 133.3841 203.3423  1.00274715 31480
SES-9                   
1 41380U 16013A   23213.25086112 -.00000349  00000+0  00000+0 0  9998
2 41380   0.0603 271.9062 0002342 199.0565  37.2385  1.00270213 27216
SES-10                  
1 42432U 17017A   23214.48412491 -.00000281  00000+0  00000+0 0  9996
2 42432   0.0182  68.5906 0002981  60.7304 288.8651  1.00268290 23205
SES-15                  
1 42709U 17026A   23214.47908486  .00000050  00000+0  00000+0 0  9999
2 42709   0.0156  35.0354 0000880 112.4541 206.6448  1.00275804 23664
SES-11 (ECHOSTAR 105)   
1 42967U 17063A   23213.92512594 -.00000096  00000+0  00000+0 0  9997
2 42967   0.0123  73.2659 0002273  59.3070  45.7751  1.00270819 21275
SES-14                  
1 43175U 18012B   23214.36661785 -.00000287  00000+0  00000+0 0  9992
2 43175   0.0180 344.6307 0001172 140.0645 270.4723  1.00270092 20513
O3B FM15                
1 43231U 18024A   23213.46715279 -.00000018  00000+0  00000+0 0  9998
2 43231   0.0531 358.3298 0002795 125.3026 236.3919  5.00114423 98644
O3B FM16                
1 43232U 18024B   23212.72089350 -.00000017  00000+0  00000+0 0  9990
2 43232   0.0571 357.0670 0002845 126.7822 236.1761  5.00116192 98585
O3B FM14                
1 43233U 18024C   23210.96187411 -.00000014  00000+0  00000+0 0  9999
2 43233   0.0587 357.5847 0003014 127.1341 235.3090  5.00115639 98495
O3B FM13                
1 43234U 18024D   23210.81565367 -.00000014  00000+0  00000+0 0  9994
2 43234   0.0475 346.9782 0002921 121.2301 251.8230  5.00115410 98495
SES-12                  
1 43488U 18049A   23208.89689646 -.00000257  00000+0  00000+0 0  9993
2 43488   0.0125  30.5449 0000642 197.9028 134.7271  1.00274148 18832
O3B FM20                
1 44112U 19020A   23212.38778973 -.00000016  00000+0  00000+0 0  9992
2 44112   0.0499 359.4046 0003081 119.1998 241.4251  5.00115656 79034
O3B FM19                
1 44113U 19020B   23212.01499753 -.00000016  00000+0  00000+0 0  9999
2 44113   0.0330 339.8457 0004122 156.2208 223.9650  5.00115516 79000
O3B FM17                
1 44114U 19020C   23213.69430927 -.00000018  00000+0  00000+0 0  9995
2 44114   0.0656  11.2251 0002802 111.9277 236.8717  5.00115924 79091
O3B FM18                
1 44115U 19020D   23212.44140572 -.00000016  00000+0  00000+0 0  9990
2 44115   0.0496 358.9592 0002749 127.3530 233.7116  5.00115983 79023
SES-17                  
1 49332U 21095A   23213.57429972 -.00000278  00000+0  00000+0 0  9990
2 49332   0.0155  65.5425 0001252  60.6125 323.4006  1.00268930  7308
SES-22                  
1 52933U 22071A   23213.70415706  .00000082  00000+0  00000+0 0  9993
2 52933   0.0095   3.3386 0001526 125.3567 299.8539  1.00273221  4034
SES-20                  
1 53960U 22123A   23213.85388323 -.00000107  00000+0  00000+0 0  9991
2 53960   0.0219 148.2397 0002205 308.8576  57.3789  1.00270117  3008
SES-21                  
1 53961U 22123B   23211.73130597  .00000072  00000+0  00000+0 0  9995
2 53961   0.0149  29.6219 0000872  99.3139 311.4163  1.00269687  2998
O3B MPOWER F1           
1 54755U 22174A   23213.80365493 -.00000018  00000+0  00000+0 0  9999
2 54755   0.0400  10.9377 0003489 195.3796 307.2562  5.00111900 12794
O3B MPOWER F2           
1 54756U 22174B   23213.82897528 -.00000019  00000+0  00000+0 0  9992
2 54756   0.0410  15.8368 0004991 177.2050 166.9428  5.00114085 12889
SES-18                  
1 55970U 23038A   23212.63541256 -.00000103  00000+0  00000+0 0  9997
2 55970   0.0623 261.7230 0001024 287.2006 245.7049  1.00272280  1578
SES-19                  
1 55971U 23038B   23214.47570024  .00000079  00000+0  00000+0 0  9998
2 55971   0.0448 270.3070 0001785 216.3754 220.4592  1.00270793  1557
O3B MPOWER F4           
1 56367U 23059A   23207.72501203 -.00000009  00000+0  00000+0 0  9998
2 56367   2.1756 293.7770 0440615  14.8765 346.4565  5.19695494  5657
O3B MPOWER F3           
1 56368U 23059B   23206.46386622 -.00000004  00000+0  00000+0 0  9990
2 56368   2.7431 289.6201 0734032  18.3577 344.2092  5.57759736  1712
